ICEYE-X26               
1 56961U 23084AF  26068.94217167  .00072488  00000+0  52392-3 0  9995
2 56961  97.5771 224.5701 0000918 250.4470 109.6694 15.73279775153542
STARLINK-11432 [DTC]    
1 62882U 25024D   26068.30499668  .00255277  00000+0  19214-2 0  9992
2 62882  43.0004 183.9960 0001209 250.2836 109.7901 15.70976261 63407
