[{"OBJECT_NAME":"ICEYE-X26","OBJECT_ID":"2023-084AF","EPOCH":"2026-03-09T22:36:43.632288","MEAN_MOTION":15.73279775,"ECCENTRICITY":9.181e-5,"INCLINATION":97.5771,"RA_OF_ASC_NODE":224.5701,"ARG_OF_PERICENTER":250.447,"MEAN_ANOMALY":109.6694,"EPHEMERIS_TYPE":0,"CLASSIFICATION_TYPE":"U","NORAD_CAT_ID":56961,"ELEMENT_SET_NO":999,"REV_AT_EPOCH":15354,"BSTAR":0.00052391916,"MEAN_MOTION_DOT":0.00072488,"MEAN_MOTION_DDOT":0},{"OBJECT_NAME":"STARLINK-11432 [DTC]","OBJECT_ID":"2025-024D","EPOCH":"2026-03-09T07:19:11.713152","MEAN_MOTION":15.70976261,"ECCENTRICITY":0.00012096,"INCLINATION":43.0004,"RA_OF_ASC_NODE":183.996,"ARG_OF_PERICENTER":250.2836,"MEAN_ANOMALY":109.7901,"EPHEMERIS_TYPE":0,"CLASSIFICATION_TYPE":"U","NORAD_CAT_ID":62882,"ELEMENT_SET_NO":999,"REV_AT_EPOCH":6340,"BSTAR":0.001921432,"MEAN_MOTION_DOT":0.00255277,"MEAN_MOTION_DDOT":0}]
